{
    "links": {
        "self": "http://www.neowsapp.com/rest/v1/neo/3841840?api_key=iIulBulltgU6a56xZRHN4H3l9WmuAYTsLGpBGhQ2"
    },
    "id": "3841840",
    "neo_reference_id": "3841840",
    "name": "(2019 JO5)",
    "designation": "2019 JO5",
    "nasa_jpl_url": "http://ssd.jpl.nasa.gov/sbdb.cgi?sstr=3841840",
    "absolute_magnitude_h": 23.7,
    "estimated_diameter": {
        "kilometers": {
            "estimated_diameter_min": 0.0483676488,
            "estimated_diameter_max": 0.1081533507
        },
        "meters": {
            "estimated_diameter_min": 48.3676488219,
            "estimated_diameter_max": 108.1533506775
        },
        "miles": {
            "estimated_diameter_min": 0.0300542543,
            "estimated_diameter_max": 0.0672033557
        },
        "feet": {
            "estimated_diameter_min": 158.6865169607,
            "estimated_diameter_max": 354.8338390368
        }
    },
    "is_potentially_hazardous_asteroid": false,
    "close_approach_data": [
        {
            "close_approach_date": "1919-09-27",
            "close_approach_date_full": "1919-Sep-27 10:21",
            "epoch_date_close_approach": -1586180340000,
            "relative_velocity": {
                "kilometers_per_second": "19.741649405",
                "kilometers_per_hour": "71069.937858175",
                "miles_per_hour": "44160.0955541532"
            },
            "miss_distance": {
                "astronomical": "0.2827843582",
                "lunar": "110.0031153398",
                "kilometers": "42303937.656037034",
                "miles": "26286447.9406737092"
            },
            "orbiting_body": "Earth"
        },
        {
            "close_approach_date": "2019-04-29",
            "close_approach_date_full": "2019-Apr-29 00:08",
            "epoch_date_close_approach": 1556496480000,
            "relative_velocity": {
                "kilometers_per_second": "28.353248725",
                "kilometers_per_hour": "102071.6954098844",
                "miles_per_hour": "63423.3820728807"
            },
            "miss_distance": {
                "astronomical": "0.0691807706",
                "lunar": "26.9113197634",
                "kilometers": "10349295.926718622",
                "miles": "6430754.2908241036"
            },
            "orbiting_body": "Earth"
        }
    ],
    "orbital_data": {
        "orbit_id": "2",
        "orbit_determination_date": "2019-05-15 07:25:03",
        "first_observation_date": "2019-05-09",
        "last_observation_date": "2019-05-14",
        "data_arc_in_days": 5,
        "observations_used": 13,
        "orbit_uncertainty": "9",
        "minimum_orbit_intersection": ".00403702",
        "jupiter_tisserand_invariant": "3.054",
        "epoch_osculation": "2458614.5",
        "eccentricity": ".8387200357679833",
        "semi_major_axis": "2.218423029506963",
        "inclination": "5.046780925671078",
        "ascending_node_longitude": "166.8953109463183",
        "orbital_period": "1206.882456647958",
        "perihelion_distance": ".3577871868503652",
        "perihelion_argument": "297.0250604469651",
        "aphelion_distance": "4.079058872163561",
        "perihelion_time": "2458559.664111269637",
        "mean_anomaly": "16.35695326764453",
        "mean_motion": ".2982891979388596",
        "equinox": "J2000",
        "orbit_class": {
            "orbit_class_type": "APO",
            "orbit_class_description": "Near-Earth asteroid orbits which cross the Earth’s orbit similar to that of 1862 Apollo",
            "orbit_class_range": "a (semi-major axis) > 1.0 AU; q (perihelion) < 1.017 AU"
        }
    },
    "is_sentry_object": false
}